PROBA-1                 
1 26958U 01049B   23053.45549649  .00004095  00000+0  34038-3 0  9991
2 26958  97.8603  18.9070 0068263 228.6882 130.8452 14.97490500161865
BIRD 2                  
1 26959U 01049C   23052.83545714  .00047024  00000+0  68905-3 0  9991
2 26959  97.7634 168.0990 0005101 192.3683 167.7446 15.55415293491774
CUTE-1 (CO-55)          
1 27844U 03031E   23053.47540362  .00000534  00000+0  25821-3 0  9998
2 27844  98.6808  62.4071 0010988  97.5738 262.6688 14.22639835 19451
CUBESAT XI-IV (CO-57)   
1 27848U 03031J   23052.95515898  .00000476  00000+0  23419-3 0  9996
2 27848  98.6845  62.3510 0010808 112.1527 248.0799 14.22169642 19178
GENESIS 1               
1 29252U 06029A   23052.89520250  .00011408  00000+0  46621-3 0  9995
2 29252  64.5236 330.3720 0039742 225.1640 134.6255 15.24024110916935
GENESIS 2               
1 31789U 07028A   23053.15667186  .00013433  00000+0  55196-3 0  9990
2 31789  64.4974  13.3572 0059269 277.8468  81.5932 15.22839590863939
APRIZESAT 4             
1 35684U 09041D   23053.08100614  .00001257  00000+0  17092-3 0  9999
2 35684  98.2974  80.1462 0045122 270.7597  88.8444 14.80048349732031
APRIZESAT 3             
1 35686U 09041F   23052.81440998  .00002610  00000+0  27293-3 0  9991
2 35686  98.0965 150.0014 0072302  91.1469 269.8032 14.88648309735693
PROBA-2                 
1 36037U 09059B   23053.48765843  .00000476  00000+0  12484-3 0  9998
2 36037  98.2236 240.4158 0014401  60.5443 299.7188 14.53424411705664
APRIZESAT 5             
1 37792U 11044E   23053.46308518  .00001509  00000+0  22089-3 0  9994
2 37792  98.2932 300.7983 0056023 287.5722  71.9371 14.76204319620016
APRIZESAT 6             
1 37793U 11044F   23053.50960900  .00001147  00000+0  18366-3 0  9990
2 37793  98.3715 278.6747 0046099 344.7645  81.0391 14.73145314618826
PROBA-V                 
1 39159U 13021A   23053.53387949  .00000059  00000+0  44355-4 0  9993
2 39159  98.3325  81.4606 0005362  82.6536 277.5252 14.23081807508894
STPSAT-3                
1 39380U 13064A   23053.01361077  .00483406  00000+0  18047-2 0  9991
2 39380  40.4961 310.0251 0017420 283.2449  76.6439 15.85664381519813
APRIZESAT 7             
1 39416U 13066A   23053.45622328  .00002142  00000+0  25338-3 0  9996
2 39416  97.6058  26.6027 0038508 253.6629 106.0350 14.85102304501166
APRIZESAT 8             
1 39425U 13066K   23053.16249793  .00002179  00000+0  27426-3 0  9995
2 39425  97.6636  18.3212 0049475 303.8924  55.7589 14.82180226500218
BUGSAT-1 (TITA)         
1 40014U 14033E   23052.94133372  .00005862  00000+0  49456-3 0  9995
2 40014  98.1457  66.7965 0028556 292.9130  66.9076 14.98249133473479
SAUDISAT 4              
1 40016U 14033G   23053.09898270  .00001065  00000+0  15906-3 0  9993
2 40016  97.6370 239.2013 0048897  52.3279 308.2351 14.75906092467236
APRIZESAT 9             
1 40018U 14033J   23053.41950092  .00001400  00000+0  22886-3 0  9990
2 40018  97.7365 215.9763 0071539 130.3402 230.4083 14.70639712465514
APRIZESAT 10            
1 40019U 14033K   23053.40160619  .00001434  00000+0  24771-3 0  9990
2 40019  97.7959 206.2279 0083478 178.0068 182.1486 14.67642653464637
TDS 1                   
1 40076U 14037H   23052.95008285  .00005768  00000+0  64666-3 0  9997
2 40076  98.3596 303.9774 0006761 357.9882   2.1304 14.87232274466842
TIANTUO 2               
1 40144U 14053B   23053.49140458  .00012422  00000+0  29424-3 0  9998
2 40144  97.1706 133.7065 0010074  21.8351  36.9259 15.41848779473565
TECHNOSAT               
1 42829U 17042E   23053.47103914  .00002744  00000+0  26988-3 0  9993
2 42829  97.3967 257.7620 0012317 249.3782 110.6117 14.92821708305373
FLYING LAPTOP           
1 42831U 17042G   23052.86939759  .00002707  00000+0  26813-3 0  9998
2 42831  97.3985 257.5369 0012272 250.8061 109.1816 14.92553559305286
HAWK-A                  
1 43765U 18099H   23053.17260499  .00004190  00000+0  35581-3 0  9991
2 43765  97.5858 119.6004 0014838 150.4277 209.7788 14.98333825230518
HAWK-B                  
1 43794U 18099AN  23052.70549556  .00004050  00000+0  34410-3 0  9990
2 43794  97.5861 119.1459 0014865 152.3088 207.8929 14.98332283230438
HAWK-C                  
1 43799U 18099AT  23053.43991486  .00003989  00000+0  33898-3 0  9998
2 43799  97.5855 119.7632 0014857 149.5727 210.6361 14.98338021230544
SALSAT                  
1 46495U 20068K   23052.79377534  .00006517  00000+0  44708-3 0  9995
2 46495  97.7589 359.7841 0016883 146.5512 213.6784 15.06245249131691
